[{"OBJECT_NAME":"YAM-5","OBJECT_ID":"2023-001BV","EPOCH":"2026-03-09T17:04:59.084544","MEAN_MOTION":15.36366488,"ECCENTRICITY":0.00107476,"INCLINATION":97.3317,"RA_OF_ASC_NODE":132.0368,"ARG_OF_PERICENTER":105.8721,"MEAN_ANOMALY":254.3709,"EPHEMERIS_TYPE":0,"CLASSIFICATION_TYPE":"U","NORAD_CAT_ID":55076,"ELEMENT_SET_NO":999,"REV_AT_EPOCH":17682,"BSTAR":0.00037500354,"MEAN_MOTION_DOT":0.00013251,"MEAN_MOTION_DDOT":0},{"OBJECT_NAME":"TRANSPORTER-12 OBJECT CL","OBJECT_ID":"2025-009CL","EPOCH":"2026-03-09T22:02:51.160416","MEAN_MOTION":15.38834312,"ECCENTRICITY":0.00028913,"INCLINATION":97.3807,"RA_OF_ASC_NODE":152.8971,"ARG_OF_PERICENTER":194.4406,"MEAN_ANOMALY":165.6757,"EPHEMERIS_TYPE":0,"CLASSIFICATION_TYPE":"U","NORAD_CAT_ID":62691,"ELEMENT_SET_NO":999,"REV_AT_EPOCH":6389,"BSTAR":0.0010087925,"MEAN_MOTION_DOT":0.00038813,"MEAN_MOTION_DDOT":0}]
